{
    "CCSDS_OMM_VERS": "3.0",
    "COMMENT": "GENERATED VIA SPACE-TRACK.ORG API",
    "CREATION_DATE": "2025-05-22T22:46:20",
    "ORIGINATOR": "18 SPCS",
    "OBJECT_NAME": "NAVSTAR 77 (USA 289)",
    "OBJECT_ID": "2018-109A",
    "CENTER_NAME": "EARTH",
    "REF_FRAME": "TEME",
    "TIME_SYSTEM": "UTC",
    "MEAN_ELEMENT_THEORY": "SGP4",
    "EPOCH": "2025-05-22T19:47:50.292960",
    "MEAN_MOTION": "2.00569402",
    "ECCENTRICITY": "0.00333570",
    "INCLINATION": "55.4541",
    "RA_OF_ASC_NODE": "107.6026",
    "ARG_OF_PERICENTER": "197.6986",
    "MEAN_ANOMALY": "306.2816",
    "EPHEMERIS_TYPE": "0",
    "CLASSIFICATION_TYPE": "U",
    "NORAD_CAT_ID": "43873",
    "ELEMENT_SET_NO": "999",
    "REV_AT_EPOCH": "4719",
    "BSTAR": "0.00000000000000",
    "MEAN_MOTION_DOT": "0.00000053",
    "MEAN_MOTION_DDOT": "0.0000000000000",
    "SEMIMAJOR_AXIS": "26559.836",
    "PERIOD": "717.956",
    "APOAPSIS": "20270.297",
    "PERIAPSIS": "20093.105",
    "OBJECT_TYPE": "PAYLOAD",
    "RCS_SIZE": "LARGE",
    "COUNTRY_CODE": "US",
    "LAUNCH_DATE": "2018-12-23",
    "SITE": "AFETR",
    "DECAY_DATE": null,
    "FILE": "4736413",
    "GP_ID": "288162374",
    "TLE_LINE0": "0 NAVSTAR 77 (USA 289)",
    "TLE_LINE1": "1 43873U 18109A   25142.82488765  .00000053  00000-0  00000+0 0  9993",
    "TLE_LINE2": "2 43873  55.4541 107.6026 0033357 197.6986 306.2816  2.00569402 47195"
}